NORAD_CAT_ID,OBJECT_NAME,OBJECT_TYPE,EPOCH,MEAN_MOTION,ECCENTRICITY,INCLINATION,RA_OF_ASC_NODE,ARG_OF_PERICENTER,MEAN_ANOMALY,BSTAR,MEAN_MOTION_DOT,MEAN_MOTION_DDOT,TLE_LINE0,TLE_LINE1,TLE_LINE2,SEMIMAJOR_AXIS,PERIOD,APOGEE,PERIGEE,DECAYED
53637.0,STARLINK-4396,PAYLOAD,2024-02-28 22:15:52,15.08842476,0.0001567,53.2178,305.2269,92.5287,267.5884,0.00027383,4.073e-05,0.0,0 STARLINK-4396,1 53637U 22104BB  24059.92768986  .00004073  00000-0  27383-3 0  9998,2 53637  53.2178 305.2269 0001567  92.5287 267.5884 15.08842476 84547,6917.873,95.437,540.822,538.654,0.0
53637.0,STARLINK-4396,PAYLOAD,2024-02-29 01:26:38,15.0884824,0.0001524,53.217,304.6318,91.0177,269.099,0.00033774,5.092e-05,0.0,0 STARLINK-4396,1 53637U 22104BB  24060.06016709  .00005092  00000-0  33774-3 0  9997,2 53637  53.2170 304.6318 0001524  91.0177 269.0990 15.08848240 83541,6917.855,95.437,540.774,538.666,0.0
53637.0,STARLINK-4396,PAYLOAD,2024-02-29 09:23:34,15.08838907,0.0001602,53.2171,303.1432,84.4307,275.6868,0.00015293,2.147e-05,0.0,0 STARLINK-4396,1 53637U 22104BB  24060.39137286  .00002147  00000-0  15293-3 0  9991,2 53637  53.2171 303.1432 0001602  84.4307 275.6868 15.08838907 83592,6917.884,95.438,540.857,538.64,0.0
53637.0,STARLINK-4396,PAYLOAD,2024-02-29 20:31:15,15.08860534,0.0001745,53.217,301.064,112.9962,247.1214,0.00039904,6.072e-05,0.0,0 STARLINK-4396,1 53637U 22104BB  24060.85504087  .00006072  00000-0  39904-3 0  9995,2 53637  53.2170 301.0640 0001745 112.9962 247.1214 15.08860534 83669,6917.818,95.436,540.89,538.475,0.0
53637.0,STARLINK-4396,PAYLOAD,2024-02-29 22:06:38,15.08865061,0.0001553,53.2169,300.767,80.9513,279.1654,0.00051731,7.96e-05,0.0,0 STARLINK-4396,1 53637U 22104BB  24060.92128071  .00007960  00000-0  51731-3 0  9997,2 53637  53.2169 300.7670 0001553  80.9513 279.1654 15.08865061 84696,6917.804,95.436,540.743,538.594,0.0
53637.0,STARLINK-4396,PAYLOAD,2024-03-01 09:14:20,15.08852398,0.0001274,53.2163,298.6832,84.6295,275.4843,0.00015803,2.229e-05,0.0,0 STARLINK-4396,1 53637U 22104BB  24061.38496134  .00002229  00000-0  15803-3 0  9999,2 53637  53.2163 298.6832 0001274  84.6295 275.4843 15.08852398 83746,6917.842,95.437,540.589,538.826,0.0
53637.0,STARLINK-4396,PAYLOAD,2024-03-01 20:22:03,15.08838589,0.0001359,53.2164,296.599,99.0626,261.052,0.00019127,2.757e-05,0.0,0 STARLINK-4396,1 53637U 22104BB  24061.84864889  .00002757  00000-0  19127-3 0  9995,2 53637  53.2164 296.5990 0001359  99.0626 261.0520 15.08838589 83818,6917.885,95.438,540.69,538.81,0.0
53637.0,STARLINK-4396,PAYLOAD,2024-03-01 21:57:26,15.08841446,0.0001329,53.2164,296.3016,112.4269,247.6864,-9.1743e-05,-1.748e-05,0.0,0 STARLINK-4396,1 53637U 22104BB  24061.91488541 -.00001748  00000-0 -91743-4 0  9996,2 53637  53.2164 296.3016 0001329 112.4269 247.6864 15.08841446 84846,6917.876,95.437,540.66,538.822,0.0
53637.0,STARLINK-4396,PAYLOAD,2024-03-02 21:48:13,15.08848897,0.0001447,53.2165,291.8455,87.2651,272.8506,-7.4124e-05,-1.468e-05,0.0,0 STARLINK-4396,1 53637U 22104BB  24062.90848381 -.00001468  00000-0 -74124-4 0  9991,2 53637  53.2165 291.8455 0001447  87.2651 272.8506 15.08848897 84995,6917.853,95.437,540.719,538.717,0.0
53637.0,STARLINK-4396,PAYLOAD,2024-03-03 00:58:59,15.08847265,0.0001585,53.2175,291.2455,118.9867,241.1284,1.6999e-05,-1.7e-07,0.0,0 STARLINK-4396,1 53637U 22104BB  24063.04096284 -.00000017  00000-0  16999-4 0  9998,2 53637  53.2175 291.2455 0001585 118.9867 241.1284 15.08847265 83993,6917.858,95.437,540.82,538.627,0.0
53637.0,STARLINK-4396,PAYLOAD,2024-03-03 15:17:25,15.08878509,0.0001463,53.2159,288.5765,81.2137,278.902,0.00065688,0.00010193,0.0,0 STARLINK-4396,1 53637U 22104BB  24063.63709907  .00010193  00000-0  65688-3 0  9999,2 53637  53.2159 288.5765 0001463  81.2137 278.9020 15.08878509 85101,6917.763,95.435,540.64,538.616,0.0
53637.0,STARLINK-4396,PAYLOAD,2024-03-03 20:03:36,15.08841943,0.0001516,53.2166,287.6779,111.8364,248.2789,5.7556e-05,6.28e-06,0.0,0 STARLINK-4396,1 53637U 22104BB  24063.83583455  .00000628  00000-0  57556-4 0  9997,2 53637  53.2166 287.6779 0001516 111.8364 248.2789 15.08841943 85132,6917.874,95.437,540.788,538.691,0.0
53637.0,STARLINK-4396,PAYLOAD,2024-03-04 00:49:45,15.0884417,0.0001325,53.2166,286.7854,97.0939,263.0204,7.0511e-05,8.35e-06,0.0,0 STARLINK-4396,1 53637U 22104BB  24064.03455399  .00000835  00000-0  70511-4 0  9991,2 53637  53.2166 286.7854 0001325  97.0939 263.0204 15.08844170 85162,6917.868,95.437,540.649,538.816,0.0
53637.0,STARLINK-4396,PAYLOAD,2024-03-04 19:54:23,15.08835636,0.0001355,53.2162,283.2166,95.3657,264.7489,-0.0001568,-2.782e-05,0.0,0 STARLINK-4396,1 53637U 22104BB  24064.82943638 -.00002782  00000-0 -15680-3 0  9996,2 53637  53.2162 283.2166 0001355  95.3657 264.7489 15.08835636 84267,6917.894,95.438,540.696,538.821,0.0
53637.0,STARLINK-4396,PAYLOAD,2024-03-04 21:29:46,15.08836241,0.0001309,53.2164,282.9192,93.5875,266.5266,-0.00014675,-2.622e-05,0.0,0 STARLINK-4396,1 53637U 22104BB  24064.89567622 -.00002622  00000-0 -14675-3 0  9994,2 53637  53.2164 282.9192 0001309  93.5875 266.5266 15.08836241 85295,6917.892,95.438,540.662,538.851,0.0
53637.0,STARLINK-4396,PAYLOAD,2024-03-05 21:20:34,15.08822258,0.0001381,53.2168,278.4629,101.1084,259.0063,-0.00017119,-3.01e-05,0.0,0 STARLINK-4396,1 53637U 22104BB  24065.88928708 -.00003010  00000-0 -17119-3 0  9998,2 53637  53.2168 278.4629 0001381 101.1084 259.0063 15.08822258 84421,6917.935,95.439,540.755,538.844,0.0
53637.0,STARLINK-4396,PAYLOAD,2024-03-06 13:14:26,15.08826235,0.0001403,53.2172,275.4901,89.0319,271.0834,0.00011929,1.61e-05,0.0,0 STARLINK-4396,1 53637U 22104BB  24066.55169352  .00001610  00000-0  11929-3 0  9990,2 53637  53.2172 275.4901 0001403  89.0319 271.0834 15.08826235 85549,6917.922,95.438,540.758,538.817,0.0
53637.0,STARLINK-4396,PAYLOAD,2024-03-06 19:35:58,15.08834176,0.0001336,53.2168,274.3012,99.8395,260.2748,0.00012757,1.743e-05,0.0,0 STARLINK-4396,1 53637U 22104BB  24066.81665253  .00001743  00000-0  12757-3 0  9997,2 53637  53.2168 274.3012 0001336  99.8395 260.2748 15.08834176 84561,6917.898,95.438,540.687,538.839,0.0
53637.0,STARLINK-4396,PAYLOAD,2024-03-07 13:05:13,15.08834764,0.0001289,53.2158,271.0295,90.4874,269.6266,0.0002626,3.893e-05,0.0,0 STARLINK-4396,1 53637U 22104BB  24067.54529871  .00003893  00000-0  26260-3 0  9995,2 53637  53.2158 271.0295 0001289  90.4874 269.6266 15.08834764 85699,6917.896,95.438,540.653,538.87,0.0
53637.0,STARLINK-4396,PAYLOAD,2024-03-08 12:56:00,15.0884121,0.000138,53.2153,266.5689,79.1952,280.9196,0.00012219,1.657e-05,0.0,0 STARLINK-4396,1 53637U 22104BB  24068.53889767  .00001657  00000-0  12219-3 0  9993,2 53637  53.2153 266.5689 0001380  79.1952 280.9196 15.08841210 84829,6917.877,95.437,540.696,538.787,0.0
53637.0,STARLINK-4396,PAYLOAD,2024-03-08 19:17:33,15.08842438,0.0001063,53.2149,265.3782,86.2477,273.8636,0.00012555,1.711e-05,0.0,0 STARLINK-4396,1 53637U 22104BB  24068.80385730  .00001711  00000-0  12555-3 0  9998,2 53637  53.2149 265.3782 0001063  86.2477 273.8636 15.08842438 85884,6917.873,95.437,540.473,539.003,0.0
53637.0,STARLINK-4396,PAYLOAD,2024-03-09 12:46:47,15.08842248,0.0001363,53.2144,262.1084,81.1954,278.9192,0.00013277,1.826e-05,0.0,0 STARLINK-4396,1 53637U 22104BB  24069.53249812  .00001826  00000-0  13277-3 0  9998,2 53637  53.2144 262.1084 0001363  81.1954 278.9192 15.08842248 85990,6917.874,95.437,540.681,538.796,0.0
53637.0,STARLINK-4396,PAYLOAD,2024-03-09 19:08:20,15.08844783,0.0001363,53.2146,260.9179,88.6315,271.4834,0.00015586,2.194e-05,0.0,0 STARLINK-4396,1 53637U 22104BB  24069.79745656  .00002194  00000-0  15586-3 0  9997,2 53637  53.2146 260.9179 0001363  88.6315 271.4834 15.08844783 85016,6917.866,95.437,540.674,538.788,0.0
53637.0,STARLINK-4396,PAYLOAD,2024-03-10 06:16:02,15.08845794,9.76e-05,53.2145,258.8345,100.9066,259.2036,0.00012679,1.731e-05,0.0,0 STARLINK-4396,1 53637U 22104BB  24070.26113554  .00001731  00000-0  12679-3 0  9993,2 53637  53.2145 258.8345 0000976 100.9066 259.2036 15.08845794 86108,6917.863,95.437,540.403,539.052,0.0
53637.0,STARLINK-4396,PAYLOAD,2024-03-10 22:09:53,15.08843872,8.08e-05,53.2172,255.8599,93.0022,267.1062,8.7852e-05,1.111e-05,0.0,0 STARLINK-4396,1 53637U 22104BB  24070.92353658  .00001111  00000-0  87852-4 0  9995,2 53637  53.2172 255.8599 0000808  93.0022 267.1062 15.08843872 86207,6917.869,95.437,540.293,539.175,0.0
53637.0,STARLINK-4396,PAYLOAD,2024-03-11 18:49:54,15.08840453,0.0001198,53.2153,251.9936,89.7173,270.3956,0.00015186,2.13e-05,0.0,0 STARLINK-4396,1 53637U 22104BB  24071.78465974  .00002130  00000-0  15186-3 0  9997,2 53637  53.2153 251.9936 0001198  89.7173 270.3956 15.08840453 85311,6917.879,95.438,540.573,538.915,0.0
53637.0,STARLINK-4396,PAYLOAD,2024-03-11 22:00:40,15.08840771,0.00014,53.2156,251.4004,93.1741,266.9411,9.3862e-05,1.206e-05,0.0,0 STARLINK-4396,1 53637U 22104BB  24071.91713910  .00001206  00000-0  93862-4 0  9999,2 53637  53.2156 251.4004 0001400  93.1741 266.9411 15.08840771 86356,6917.878,95.438,540.712,538.775,0.0
53637.0,STARLINK-4396,PAYLOAD,2024-03-13 04:13:00,15.08840515,0.0001315,53.216,245.7492,82.6728,277.4414,7.9673e-05,9.8e-06,0.0,0 STARLINK-4396,1 53637U 22104BB  24073.17569956  .00000980  00000-0  79673-4 0  9990,2 53637  53.2160 245.7492 0001315  82.6728 277.4414 15.08840515 85525,6917.879,95.438,540.654,538.834,0.0
53637.0,STARLINK-4396,PAYLOAD,2024-03-13 18:31:28,15.08841106,0.000137,53.2154,243.0745,86.7908,273.3241,5.7774e-05,6.32e-06,0.0,0 STARLINK-4396,1 53637U 22104BB  24073.77185947  .00000632  00000-0  57774-4 0  9992,2 53637  53.2154 243.0745 0001370  86.7908 273.3241 15.08841106 86639,6917.877,95.437,540.69,538.794,0.0
53637.0,STARLINK-4396,PAYLOAD,2024-03-14 04:03:47,15.08839171,0.0001322,53.2141,241.2895,86.2546,273.8597,5.4828e-05,5.85e-06,0.0,0 STARLINK-4396,1 53637U 22104BB  24074.16930107  .00000585  00000-0  54828-4 0  9996,2 53637  53.2141 241.2895 0001322  86.2546 273.8597 15.08839171 86695,6917.883,95.438,540.662,538.833,0.0
